[{"OBJECT_NAME":"UNKNOWN","OBJECT_ID":"","EPOCH":"2026-03-06T13:24:22.663296","MEAN_MOTION":13.91222755,"ECCENTRICITY":0.01417585,"INCLINATION":98.9375,"RA_OF_ASC_NODE":349.6785,"ARG_OF_PERICENTER":177.8229,"MEAN_ANOMALY":182.3578,"EPHEMERIS_TYPE":0,"CLASSIFICATION_TYPE":"U","NORAD_CAT_ID":270229,"ELEMENT_SET_NO":999,"REV_AT_EPOCH":31365,"BSTAR":0.00064311455,"MEAN_MOTION_DOT":8.37e-6,"MEAN_MOTION_DDOT":0},{"OBJECT_NAME":"UNKNOWN","OBJECT_ID":"","EPOCH":"2026-02-24T03:58:03.711936","MEAN_MOTION":12.20961756,"ECCENTRICITY":0.03216827,"INCLINATION":103.0468,"RA_OF_ASC_NODE":28.2816,"ARG_OF_PERICENTER":301.112,"MEAN_ANOMALY":55.8739,"EPHEMERIS_TYPE":0,"CLASSIFICATION_TYPE":"U","NORAD_CAT_ID":270230,"ELEMENT_SET_NO":999,"REV_AT_EPOCH":27207,"BSTAR":0.018435701,"MEAN_MOTION_DOT":2.229e-5,"MEAN_MOTION_DDOT":0},{"OBJECT_NAME":"UNKNOWN","OBJECT_ID":"","EPOCH":"2026-02-26T10:59:09.781440","MEAN_MOTION":12.9221751,"ECCENTRICITY":0.07024324,"INCLINATION":72.9697,"RA_OF_ASC_NODE":316.2208,"ARG_OF_PERICENTER":264.7321,"MEAN_ANOMALY":87.3285,"EPHEMERIS_TYPE":0,"CLASSIFICATION_TYPE":"U","NORAD_CAT_ID":270232,"ELEMENT_SET_NO":999,"REV_AT_EPOCH":28777,"BSTAR":0.0008307914,"MEAN_MOTION_DOT":6.59e-6,"MEAN_MOTION_DDOT":0},{"OBJECT_NAME":"UNKNOWN","OBJECT_ID":"","EPOCH":"2026-03-06T05:49:21.947232","MEAN_MOTION":14.38489332,"ECCENTRICITY":0.00332739,"INCLINATION":98.6271,"RA_OF_ASC_NODE":71.1442,"ARG_OF_PERICENTER":118.9165,"MEAN_ANOMALY":241.5366,"EPHEMERIS_TYPE":0,"CLASSIFICATION_TYPE":"U","NORAD_CAT_ID":270233,"ELEMENT_SET_NO":999,"REV_AT_EPOCH":32049,"BSTAR":0.00021072844,"MEAN_MOTION_DOT":6.03e-6,"MEAN_MOTION_DDOT":0},{"OBJECT_NAME":"UNKNOWN","OBJECT_ID":"","EPOCH":"2026-03-05T01:37:32.697120","MEAN_MOTION":12.95518514,"ECCENTRICITY":0.0031585,"INCLINATION":90.2413,"RA_OF_ASC_NODE":1.2076,"ARG_OF_PERICENTER":79.7442,"MEAN_ANOMALY":280.7237,"EPHEMERIS_TYPE":0,"CLASSIFICATION_TYPE":"U","NORAD_CAT_ID":270236,"ELEMENT_SET_NO":999,"REV_AT_EPOCH":28888,"BSTAR":4.5814277e-5,"MEAN_MOTION_DOT":2.1e-7,"MEAN_MOTION_DDOT":0},{"OBJECT_NAME":"UNKNOWN","OBJECT_ID":"","EPOCH":"2026-03-02T06:56:30.146784","MEAN_MOTION":12.95994703,"ECCENTRICITY":0.00192024,"INCLINATION":90.2502,"RA_OF_ASC_NODE":4.8145,"ARG_OF_PERICENTER":178.6453,"MEAN_ANOMALY":181.4723,"EPHEMERIS_TYPE":0,"CLASSIFICATION_TYPE":"U","NORAD_CAT_ID":270237,"ELEMENT_SET_NO":999,"REV_AT_EPOCH":28742,"BSTAR":-0.0024206232,"MEAN_MOTION_DOT":-6.81e-6,"MEAN_MOTION_DDOT":0},{"OBJECT_NAME":"UNKNOWN","OBJECT_ID":"","EPOCH":"2026-03-06T09:54:57.814560","MEAN_MOTION":12.8082283,"ECCENTRICITY":0.01193617,"INCLINATION":63.5253,"RA_OF_ASC_NODE":330.4845,"ARG_OF_PERICENTER":65.1016,"MEAN_ANOMALY":296.233,"EPHEMERIS_TYPE":0,"CLASSIFICATION_TYPE":"U","NORAD_CAT_ID":270238,"ELEMENT_SET_NO":999,"REV_AT_EPOCH":28519,"BSTAR":0.0024073954,"MEAN_MOTION_DOT":4.96e-6,"MEAN_MOTION_DDOT":0},{"OBJECT_NAME":"UNKNOWN","OBJECT_ID":"","EPOCH":"2026-02-25T02:22:45.460128","MEAN_MOTION":12.641459,"ECCENTRICITY":0.00721075,"INCLINATION":82.4386,"RA_OF_ASC_NODE":197.0597,"ARG_OF_PERICENTER":115.4454,"MEAN_ANOMALY":245.4122,"EPHEMERIS_TYPE":0,"CLASSIFICATION_TYPE":"U","NORAD_CAT_ID":270240,"ELEMENT_SET_NO":999,"REV_AT_EPOCH":27782,"BSTAR":0.01776039,"MEAN_MOTION_DOT":3.3e-5,"MEAN_MOTION_DDOT":0},{"OBJECT_NAME":"UNKNOWN","OBJECT_ID":"","EPOCH":"2026-02-28T02:14:24.954432","MEAN_MOTION":12.94426915,"ECCENTRICITY":0.00359025,"INCLINATION":90.2485,"RA_OF_ASC_NODE":3.8526,"ARG_OF_PERICENTER":178.6784,"MEAN_ANOMALY":181.4436,"EPHEMERIS_TYPE":0,"CLASSIFICATION_TYPE":"U","NORAD_CAT_ID":270241,"ELEMENT_SET_NO":999,"REV_AT_EPOCH":28659,"BSTAR":0.00038297892,"MEAN_MOTION_DOT":1.14e-6,"MEAN_MOTION_DDOT":0},{"OBJECT_NAME":"UNKNOWN","OBJECT_ID":"","EPOCH":"2026-03-02T03:05:39.187392","MEAN_MOTION":12.98561356,"ECCENTRICITY":0.00431669,"INCLINATION":90.2426,"RA_OF_ASC_NODE":5.1055,"ARG_OF_PERICENTER":292.1737,"MEAN_ANOMALY":67.4806,"EPHEMERIS_TYPE":0,"CLASSIFICATION_TYPE":"U","NORAD_CAT_ID":270242,"ELEMENT_SET_NO":999,"REV_AT_EPOCH":28755,"BSTAR":0.0022217592,"MEAN_MOTION_DOT":6.65e-6,"MEAN_MOTION_DDOT":0},{"OBJECT_NAME":"UNKNOWN","OBJECT_ID":"","EPOCH":"2026-02-28T14:14:25.322496","MEAN_MOTION":12.78837087,"ECCENTRICITY":0.00714545,"INCLINATION":66.0661,"RA_OF_ASC_NODE":167.2435,"ARG_OF_PERICENTER":347.0077,"MEAN_ANOMALY":12.9094,"EPHEMERIS_TYPE":0,"CLASSIFICATION_TYPE":"U","NORAD_CAT_ID":270247,"ELEMENT_SET_NO":999,"REV_AT_EPOCH":28200,"BSTAR":0.0012042083,"MEAN_MOTION_DOT":2.12e-6,"MEAN_MOTION_DDOT":0},{"OBJECT_NAME":"UNKNOWN","OBJECT_ID":"","EPOCH":"2026-03-05T12:38:45.734208","MEAN_MOTION":12.95402166,"ECCENTRICITY":0.0030425,"INCLINATION":90.2437,"RA_OF_ASC_NODE":4.188,"ARG_OF_PERICENTER":107.3319,"MEAN_ANOMALY":253.1132,"EPHEMERIS_TYPE":0,"CLASSIFICATION_TYPE":"U","NORAD_CAT_ID":270249,"ELEMENT_SET_NO":999,"REV_AT_EPOCH":28516,"BSTAR":0.00041958821,"MEAN_MOTION_DOT":1.26e-6,"MEAN_MOTION_DDOT":0},{"OBJECT_NAME":"UNKNOWN","OBJECT_ID":"","EPOCH":"2026-02-16T03:58:24.295872","MEAN_MOTION":12.59811593,"ECCENTRICITY":0.01640397,"INCLINATION":82.466,"RA_OF_ASC_NODE":210.1019,"ARG_OF_PERICENTER":179.1904,"MEAN_ANOMALY":180.9483,"EPHEMERIS_TYPE":0,"CLASSIFICATION_TYPE":"U","NORAD_CAT_ID":270250,"ELEMENT_SET_NO":999,"REV_AT_EPOCH":27366,"BSTAR":0.01273464,"MEAN_MOTION_DOT":2.33e-5,"MEAN_MOTION_DDOT":0},{"OBJECT_NAME":"UNKNOWN","OBJECT_ID":"","EPOCH":"2026-03-05T00:35:38.435424","MEAN_MOTION":11.49642232,"ECCENTRICITY":0.07489902,"INCLINATION":102.3391,"RA_OF_ASC_NODE":344.7055,"ARG_OF_PERICENTER":33.5127,"MEAN_ANOMALY":331.1046,"EPHEMERIS_TYPE":0,"CLASSIFICATION_TYPE":"U","NORAD_CAT_ID":270251,"ELEMENT_SET_NO":999,"REV_AT_EPOCH":25287,"BSTAR":0.091496452,"MEAN_MOTION_DOT":7.869e-5,"MEAN_MOTION_DDOT":0},{"OBJECT_NAME":"UNKNOWN","OBJECT_ID":"","EPOCH":"2026-03-06T06:30:45.705312","MEAN_MOTION":13.0026476,"ECCENTRICITY":0.00333528,"INCLINATION":90.2474,"RA_OF_ASC_NODE":4.5417,"ARG_OF_PERICENTER":141.7377,"MEAN_ANOMALY":218.6121,"EPHEMERIS_TYPE":0,"CLASSIFICATION_TYPE":"U","NORAD_CAT_ID":270253,"ELEMENT_SET_NO":999,"REV_AT_EPOCH":28607,"BSTAR":0.0031198967,"MEAN_MOTION_DOT":9.52e-6,"MEAN_MOTION_DDOT":0},{"OBJECT_NAME":"UNKNOWN","OBJECT_ID":"","EPOCH":"2026-02-28T01:56:07.059264","MEAN_MOTION":12.93279353,"ECCENTRICITY":0.00322125,"INCLINATION":90.2503,"RA_OF_ASC_NODE":5.147,"ARG_OF_PERICENTER":195.9081,"MEAN_ANOMALY":164.1028,"EPHEMERIS_TYPE":0,"CLASSIFICATION_TYPE":"U","NORAD_CAT_ID":270256,"ELEMENT_SET_NO":999,"REV_AT_EPOCH":28491,"BSTAR":0.00016006426,"MEAN_MOTION_DOT":5.1e-7,"MEAN_MOTION_DDOT":0},{"OBJECT_NAME":"UNKNOWN","OBJECT_ID":"","EPOCH":"2026-03-05T05:51:14.304384","MEAN_MOTION":12.33950421,"ECCENTRICITY":0.02875935,"INCLINATION":82.4171,"RA_OF_ASC_NODE":263.8733,"ARG_OF_PERICENTER":200.2735,"MEAN_ANOMALY":158.6731,"EPHEMERIS_TYPE":0,"CLASSIFICATION_TYPE":"U","NORAD_CAT_ID":270258,"ELEMENT_SET_NO":999,"REV_AT_EPOCH":27027,"BSTAR":0.01607656,"MEAN_MOTION_DOT":2.291e-5,"MEAN_MOTION_DDOT":0},{"OBJECT_NAME":"UNKNOWN","OBJECT_ID":"","EPOCH":"2026-03-05T02:01:56.379648","MEAN_MOTION":12.95608595,"ECCENTRICITY":0.00329653,"INCLINATION":90.2504,"RA_OF_ASC_NODE":6.9323,"ARG_OF_PERICENTER":82.5634,"MEAN_ANOMALY":277.9229,"EPHEMERIS_TYPE":0,"CLASSIFICATION_TYPE":"U","NORAD_CAT_ID":270262,"ELEMENT_SET_NO":999,"REV_AT_EPOCH":28279,"BSTAR":2.36219e-5,"MEAN_MOTION_DOT":1.4e-7,"MEAN_MOTION_DDOT":0},{"OBJECT_NAME":"UNKNOWN","OBJECT_ID":"","EPOCH":"2026-03-06T15:35:58.139808","MEAN_MOTION":13.15583679,"ECCENTRICITY":0.00194869,"INCLINATION":82.5467,"RA_OF_ASC_NODE":217.4429,"ARG_OF_PERICENTER":167.5979,"MEAN_ANOMALY":192.5626,"EPHEMERIS_TYPE":0,"CLASSIFICATION_TYPE":"U","NORAD_CAT_ID":270264,"ELEMENT_SET_NO":999,"REV_AT_EPOCH":28717,"BSTAR":0.0016239036,"MEAN_MOTION_DOT":6.25e-6,"MEAN_MOTION_DDOT":0},{"OBJECT_NAME":"UNKNOWN","OBJECT_ID":"","EPOCH":"2026-03-02T13:12:25.989984","MEAN_MOTION":12.96388362,"ECCENTRICITY":0.00299171,"INCLINATION":90.2448,"RA_OF_ASC_NODE":4.2952,"ARG_OF_PERICENTER":51.5408,"MEAN_ANOMALY":308.839,"EPHEMERIS_TYPE":0,"CLASSIFICATION_TYPE":"U","NORAD_CAT_ID":270267,"ELEMENT_SET_NO":999,"REV_AT_EPOCH":28273,"BSTAR":-0.0010569983,"MEAN_MOTION_DOT":-2.95e-6,"MEAN_MOTION_DDOT":0},{"OBJECT_NAME":"UNKNOWN","OBJECT_ID":"","EPOCH":"2026-03-07T12:45:02.816640","MEAN_MOTION":12.98388298,"ECCENTRICITY":0.00291302,"INCLINATION":90.248,"RA_OF_ASC_NODE":6.5273,"ARG_OF_PERICENTER":327.2014,"MEAN_ANOMALY":32.7298,"EPHEMERIS_TYPE":0,"CLASSIFICATION_TYPE":"U","NORAD_CAT_ID":270268,"ELEMENT_SET_NO":999,"REV_AT_EPOCH":28348,"BSTAR":0.001301745,"MEAN_MOTION_DOT":3.91e-6,"MEAN_MOTION_DDOT":0},{"OBJECT_NAME":"UNKNOWN","OBJECT_ID":"","EPOCH":"2026-03-07T13:27:56.799648","MEAN_MOTION":13.30551844,"ECCENTRICITY":0.00835606,"INCLINATION":82.5877,"RA_OF_ASC_NODE":181.3862,"ARG_OF_PERICENTER":213.5056,"MEAN_ANOMALY":146.0773,"EPHEMERIS_TYPE":0,"CLASSIFICATION_TYPE":"U","NORAD_CAT_ID":270269,"ELEMENT_SET_NO":999,"REV_AT_EPOCH":29012,"BSTAR":0.0006657712,"MEAN_MOTION_DOT":3.32e-6,"MEAN_MOTION_DDOT":0},{"OBJECT_NAME":"UNKNOWN","OBJECT_ID":"","EPOCH":"2026-03-07T13:46:51.621312","MEAN_MOTION":12.98348145,"ECCENTRICITY":0.00305917,"INCLINATION":90.2534,"RA_OF_ASC_NODE":10.0494,"ARG_OF_PERICENTER":304.0403,"MEAN_ANOMALY":55.7815,"EPHEMERIS_TYPE":0,"CLASSIFICATION_TYPE":"U","NORAD_CAT_ID":270274,"ELEMENT_SET_NO":999,"REV_AT_EPOCH":28306,"BSTAR":0.00072770317,"MEAN_MOTION_DOT":2.21e-6,"MEAN_MOTION_DDOT":0},{"OBJECT_NAME":"UNKNOWN","OBJECT_ID":"","EPOCH":"2026-03-02T01:26:58.513344","MEAN_MOTION":13.92764203,"ECCENTRICITY":0.0302382,"INCLINATION":86.434,"RA_OF_ASC_NODE":354.2351,"ARG_OF_PERICENTER":318.8972,"MEAN_ANOMALY":38.9766,"EPHEMERIS_TYPE":0,"CLASSIFICATION_TYPE":"U","NORAD_CAT_ID":270275,"ELEMENT_SET_NO":999,"REV_AT_EPOCH":2851,"BSTAR":0.0061816995,"MEAN_MOTION_DOT":0.00011669,"MEAN_MOTION_DDOT":0}]
